1 38017U 97051YD  26114.95771152  .00005664  00000+0  13172-2 0  9998
2 38017  86.3373 108.0925 0087010  24.4788 336.0510 14.52435147633348
